[{"OBJECT_NAME":"STARLINK-6070","OBJECT_ID":"2023-078AM","EPOCH":"2026-03-09T22:00:01.999584","MEAN_MOTION":15.33868458,"ECCENTRICITY":0.00035577,"INCLINATION":70.001,"RA_OF_ASC_NODE":321.9382,"ARG_OF_PERICENTER":287.8141,"MEAN_ANOMALY":182.2971,"EPHEMERIS_TYPE":0,"CLASSIFICATION_TYPE":"U","NORAD_CAT_ID":56802,"ELEMENT_SET_NO":999,"REV_AT_EPOCH":575,"BSTAR":0.031099255,"MEAN_MOTION_DOT":0.0111992,"MEAN_MOTION_DDOT":0},{"OBJECT_NAME":"LEMUR-2-MJR092620","OBJECT_ID":"2023-174CN","EPOCH":"2026-03-09T18:24:55.157184","MEAN_MOTION":15.42139644,"ECCENTRICITY":0.00081266,"INCLINATION":97.3983,"RA_OF_ASC_NODE":157.1994,"ARG_OF_PERICENTER":114.5902,"MEAN_ANOMALY":245.6192,"EPHEMERIS_TYPE":0,"CLASSIFICATION_TYPE":"U","NORAD_CAT_ID":58340,"ELEMENT_SET_NO":999,"REV_AT_EPOCH":13031,"BSTAR":0.00032807736,"MEAN_MOTION_DOT":0.00013986,"MEAN_MOTION_DDOT":0}]
